STARLINK-30523          
1 57997U 23153G   26068.01230114  .00000351  00000+0  22765-4 0  9999
2 57997  43.0041  70.8064 0001320 255.6491 104.4214 15.26734967134794
LIME                    
1 62648U 25009AR  26068.73906781  .00013254  00000+0  47723-3 0  9995
2 62648  97.3985 151.4831 0001635  35.9029 324.2320 15.28703313 63766
